{"type":"FeatureCollection","features":[{"type":"Feature","properties":{"fid":"1","id":"1","Lugar":"EXTREMO","frente":"1","Name":"1","nombre":"1"},"geometry":{"type":"Point","coordinates":[-99.151973,19.448261]}},{"type":"Feature","properties":{"fid":"2","id":"2","Lugar":"INTERMEDIO","frente":"2","Name":"2","nombre":"2"},"geometry":{"type":"Point","coordinates":[-99.186078,19.608359]}},{"type":"Feature","properties":{"fid":"3","id":"3","Lugar":"INTERMEDIO","frente":"3","Name":"3","nombre":"3"},"geometry":{"type":"Point","coordinates":[-99.18507,19.780006]}},{"type":"Feature","properties":{"fid":"4","id":"4","Lugar":"INTERMEDIO","frente":"4","Name":"4","nombre":"4"},"geometry":{"type":"Point","coordinates":[-99.281977,19.91664]}},{"type":"Feature","properties":{"fid":"5","id":"5","Lugar":"INTERMEDIO","frente":"5","Name":"5","nombre":"5"},"geometry":{"type":"Point","coordinates":[-99.338845,20.07076]}},{"type":"Feature","properties":{"fid":"6","id":"6","Lugar":"INTERMEDIO","frente":"6","Name":"6","nombre":"6"},"geometry":{"type":"Point","coordinates":[-99.497142,20.120008]}},{"type":"Feature","properties":{"fid":"7","id":"8","Lugar":"INTERMEDIO","frente":"8","Name":"8","nombre":"8"},"geometry":{"type":"Point","coordinates":[-99.804598,20.233308]}},{"type":"Feature","properties":{"fid":"8","id":"9","Lugar":"INTERMEDIO","frente":"9","Name":"9","nombre":"9"},"geometry":{"type":"Point","coordinates":[-99.944158,20.322448]}},{"type":"Feature","properties":{"fid":"9","id":"10","Lugar":"INTERMEDIO","frente":"10","Name":"10","nombre":"10"},"geometry":{"type":"Point","coordinates":[-100.028199,20.400275]}},{"type":"Feature","properties":{"fid":"10","id":"11","Lugar":"INTERMEDIO","frente":"11","Name":"11","nombre":"11"},"geometry":{"type":"Point","coordinates":[-100.146112,20.526144]}},{"type":"Feature","properties":{"fid":"11","id":"12","Lugar":"INTERMEDIO","frente":"12","Name":"12","nombre":"12"},"geometry":{"type":"Point","coordinates":[-100.252302,20.624872]}},{"type":"Feature","properties":{"fid":"12","id":"13","Lugar":"EXTREMO","frente":"FIN","Name":"FIN","nombre":"FIN"},"geometry":{"type":"Point","coordinates":[-100.450856,20.599961]}},{"type":"Feature","properties":{"fid":"13","id":"7","Lugar":"INTERMEDIO","frente":"7","Name":"7","nombre":"7"},"geometry":{"type":"Point","coordinates":[-99.624091,20.221558]}}]}