{"type":"FeatureCollection","features":[{"type":"Feature","properties":{"nombre":"Polígono sin título"},"geometry":{"type":"Polygon","coordinates":[[[-99.773177,20.226645],[-99.77322,20.226626],[-99.773549,20.226698],[-99.773554,20.226548],[-99.773348,20.226524],[-99.773136,20.226524],[-99.772732,20.226518],[-99.773177,20.226645]]]}},{"type":"Feature","properties":{"nombre":"Polígono sin título"},"geometry":{"type":"Polygon","coordinates":[[[-99.777165,20.227263],[-99.776923,20.226873],[-99.775364,20.226671],[-99.775367,20.227039],[-99.777165,20.227263]]]}},{"type":"Feature","properties":{"nombre":"Polígono sin título"},"geometry":{"type":"Polygon","coordinates":[[[-99.775337,20.227027],[-99.775344,20.226669],[-99.774946,20.226649],[-99.774294,20.226596],[-99.773576,20.226543],[-99.773559,20.226707],[-99.77406,20.226928],[-99.775337,20.227027]]]}},{"type":"Feature","properties":{"nombre":"Polígono sin título"},"geometry":{"type":"Polygon","coordinates":[[[-99.774026,20.226944],[-99.773536,20.226708],[-99.773214,20.226629],[-99.77314,20.226864],[-99.774026,20.226944]]]}},{"type":"Feature","properties":{"nombre":"Polígono sin título"},"geometry":{"type":"Polygon","coordinates":[[[-99.773124,20.226872],[-99.773194,20.226661],[-99.772604,20.226504],[-99.771559,20.226492],[-99.771494,20.226822],[-99.773124,20.226872]]]}},{"type":"Feature","properties":{"nombre":"Polígono sin título"},"geometry":{"type":"Polygon","coordinates":[[[-99.771548,20.226483],[-99.770055,20.226462],[-99.769986,20.2268],[-99.771454,20.226822],[-99.771548,20.226483]]]}},{"type":"Feature","properties":{"nombre":"Polígono sin título"},"geometry":{"type":"Polygon","coordinates":[[[-99.309575,20.008934],[-99.309423,20.009574],[-99.309766,20.009581],[-99.309575,20.008934]]]}},{"type":"Feature","properties":{"nombre":"Polígono sin título"},"geometry":{"type":"Polygon","coordinates":[[[-99.309789,20.009676],[-99.309406,20.009683],[-99.309632,20.010472],[-99.310036,20.010525],[-99.309789,20.009676]]]}},{"type":"Feature","properties":{"nombre":"Polígono sin título"},"geometry":{"type":"Polygon","coordinates":[[[-99.31006,20.010617],[-99.310037,20.010545],[-99.309645,20.010493],[-99.309664,20.010568],[-99.31006,20.010617]]]}},{"type":"Feature","properties":{"nombre":"Polígono sin título"},"geometry":{"type":"Polygon","coordinates":[[[-99.309886,20.011367],[-99.31001,20.011361],[-99.309799,20.010588],[-99.309673,20.010577],[-99.309886,20.011367]]]}},{"type":"Feature","properties":{"nombre":"Polígono sin título"},"geometry":{"type":"Polygon","coordinates":[[[-99.310057,20.010629],[-99.309806,20.010594],[-99.31001,20.01137],[-99.310252,20.011348],[-99.310057,20.010629]]]}},{"type":"Feature","properties":{"nombre":"Polígono sin título"},"geometry":{"type":"Polygon","coordinates":[[[-99.31027,20.011371],[-99.309867,20.011383],[-99.3105,20.013466],[-99.310865,20.013468],[-99.31027,20.011371]]]}},{"type":"Feature","properties":{"nombre":"Polígono sin título"},"geometry":{"type":"Polygon","coordinates":[[[-99.310858,20.013481],[-99.310486,20.013499],[-99.31082,20.014622],[-99.311266,20.01488],[-99.310858,20.013481]]]}},{"type":"Feature","properties":{"nombre":"Polígono sin título"},"geometry":{"type":"Polygon","coordinates":[[[-99.311574,20.015938],[-99.31127,20.014889],[-99.310797,20.014635],[-99.310852,20.014781],[-99.310997,20.015294],[-99.311075,20.015473],[-99.311067,20.015526],[-99.311164,20.015835],[-99.311574,20.015938]]]}},{"type":"Feature","properties":{"nombre":"Polígono sin título"},"geometry":{"type":"Polygon","coordinates":[[[-99.311671,20.016572],[-99.311732,20.016578],[-99.311604,20.016103],[-99.311671,20.016572]]]}},{"type":"Feature","properties":{"nombre":"Polígono sin título"},"geometry":{"type":"Polygon","coordinates":[[[-99.311771,20.016661],[-99.311748,20.016582],[-99.311678,20.016579],[-99.31134,20.016498],[-99.311346,20.016553],[-99.311669,20.016657],[-99.311771,20.016661]]]}},{"type":"Feature","properties":{"nombre":"Polígono sin título"},"geometry":{"type":"Polygon","coordinates":[[[-99.311775,20.016672],[-99.311602,20.016643],[-99.31143,20.016582],[-99.311341,20.016558],[-99.31167,20.01763],[-99.312036,20.017611],[-99.311775,20.016672]]]}},{"type":"Feature","properties":{"nombre":"Polígono sin título"},"geometry":{"type":"Polygon","coordinates":[[[-99.312115,20.017914],[-99.31205,20.017646],[-99.311665,20.017644],[-99.311729,20.017944],[-99.312115,20.017914]]]}},{"type":"Feature","properties":{"nombre":"Polígono sin título"},"geometry":{"type":"Polygon","coordinates":[[[-99.311987,20.017987],[-99.312128,20.017975],[-99.312119,20.017919],[-99.311735,20.017945],[-99.311759,20.018002],[-99.311987,20.017987]]]}},{"type":"Feature","properties":{"nombre":"Polígono sin título"},"geometry":{"type":"Polygon","coordinates":[[[-99.312187,20.018207],[-99.312137,20.017978],[-99.311759,20.018005],[-99.31181,20.018222],[-99.312187,20.018207]]]}},{"type":"Feature","properties":{"nombre":"Polígono sin título"},"geometry":{"type":"Polygon","coordinates":[[[-99.312109,20.019572],[-99.312442,20.019489],[-99.312053,20.018224],[-99.311826,20.018233],[-99.312109,20.019572]]]}},{"type":"Feature","properties":{"nombre":"Polígono sin título"},"geometry":{"type":"Polygon","coordinates":[[[-99.312343,20.020849],[-99.312436,20.021527],[-99.312807,20.021436],[-99.312705,20.020753],[-99.312343,20.020849]]]}},{"type":"Feature","properties":{"nombre":"Polígono sin título"},"geometry":{"type":"Polygon","coordinates":[[[-99.312639,20.020329],[-99.312621,20.020191],[-99.312216,20.020067],[-99.312242,20.020209],[-99.312639,20.020329]]]}},{"type":"Feature","properties":{"nombre":"Polígono sin título"},"geometry":{"type":"Polygon","coordinates":[[[-99.312611,20.02018],[-99.312586,20.020015],[-99.312461,20.019525],[-99.312122,20.019609],[-99.312223,20.020059],[-99.312611,20.02018]]]}},{"type":"Feature","properties":{"nombre":"Polígono sin título"},"geometry":{"type":"Polygon","coordinates":[[[-99.312707,20.020741],[-99.312641,20.020342],[-99.312236,20.020213],[-99.312333,20.020837],[-99.312707,20.020741]]]}},{"type":"Feature","properties":{"nombre":"Polígono sin título"},"geometry":{"type":"Polygon","coordinates":[[[-100.121696,20.505309],[-100.121241,20.50503],[-100.117913,20.502313],[-100.117891,20.5025],[-100.121666,20.505608],[-100.121696,20.505309]]]}},{"type":"Feature","properties":{"nombre":"Polígono sin título"},"geometry":{"type":"Polygon","coordinates":[[[-100.044909,20.426091],[-100.044644,20.425993],[-100.045846,20.427455],[-100.045947,20.427278],[-100.044909,20.426091]]]}},{"type":"Feature","properties":{"nombre":"Polígono sin título"},"geometry":{"type":"Polygon","coordinates":[[[-99.747516,20.222006],[-99.747752,20.222442],[-99.748284,20.22262],[-99.748641,20.222356],[-99.747516,20.222006]]]}},{"type":"Feature","properties":{"nombre":"Polígono sin título"},"geometry":{"type":"Polygon","coordinates":[[[-99.308321,20.004471],[-99.308453,20.006308],[-99.308814,20.007544],[-99.30869,20.005734],[-99.308321,20.004471]]]}},{"type":"Feature","properties":{"nombre":"Polígono sin título"},"geometry":{"type":"Polygon","coordinates":[[[-99.307236,20.000653],[-99.306825,20.000313],[-99.306778,20.000359],[-99.307199,20.001788],[-99.307261,20.001862],[-99.307635,20.002014],[-99.307236,20.000653]]]}},{"type":"Feature","properties":{"nombre":"Polígono sin título"},"geometry":{"type":"Polygon","coordinates":[[[-99.312945,20.022954],[-99.312558,20.022861],[-99.312617,20.023501],[-99.312953,20.023079],[-99.312945,20.022954]]]}},{"type":"Feature","properties":{"nombre":"Polígono sin título"},"geometry":{"type":"Polygon","coordinates":[[[-99.309416,20.008364],[-99.309162,20.008313],[-99.309045,20.008376],[-99.309377,20.009581],[-99.309405,20.009564],[-99.309572,20.008899],[-99.309416,20.008364]]]}},{"type":"Feature","properties":{"nombre":"Polígono sin título"},"geometry":{"type":"Polygon","coordinates":[[[-99.313098,20.028409],[-99.313088,20.028306],[-99.312724,20.028191],[-99.312726,20.028298],[-99.313098,20.028409]]]}},{"type":"Feature","properties":{"nombre":"Polígono sin título"},"geometry":{"type":"Polygon","coordinates":[[[-100.137714,20.518314],[-100.13743,20.518558],[-100.137447,20.518583],[-100.137727,20.518347],[-100.137714,20.518314]]]}},{"type":"Feature","properties":{"nombre":"Polígono sin título"},"geometry":{"type":"Polygon","coordinates":[[[-99.304279,19.984138],[-99.304685,19.983877],[-99.304864,19.98225],[-99.304677,19.982149],[-99.304509,19.982103],[-99.304449,19.982672],[-99.304556,19.982697],[-99.304419,19.983032],[-99.304449,19.983237],[-99.304368,19.98336],[-99.304279,19.984138]]]}},{"type":"Feature","properties":{"nombre":"Polígono sin título"},"geometry":{"type":"Polygon","coordinates":[[[-99.305052,19.980541],[-99.305081,19.980307],[-99.304731,19.98008],[-99.304706,19.980313],[-99.305052,19.980541]]]}},{"type":"Feature","properties":{"nombre":"Polígono sin título"},"geometry":{"type":"Polygon","coordinates":[[[-99.266081,19.895111],[-99.265763,19.89531],[-99.267431,19.897541],[-99.267764,19.897336],[-99.266081,19.895111]]]}},{"type":"Feature","properties":{"nombre":"Polígono sin título"},"geometry":{"type":"Polygon","coordinates":[[[-99.305153,19.979712],[-99.305157,19.979653],[-99.305001,19.979483],[-99.304787,19.979546],[-99.304787,19.979594],[-99.304807,19.979567],[-99.304958,19.979507],[-99.305153,19.979712]]]}},{"type":"Feature","properties":{"nombre":"Polígono sin título"},"geometry":{"type":"Polygon","coordinates":[[[-100.146834,20.52578],[-100.14631,20.526354],[-100.146342,20.526407],[-100.146883,20.525812],[-100.146834,20.52578]]]}},{"type":"Feature","properties":{"nombre":"Polígono sin título"},"geometry":{"type":"Polygon","coordinates":[[[-100.148863,20.527681],[-100.148823,20.527648],[-100.148474,20.52802],[-100.148521,20.528049],[-100.148863,20.527681]]]}},{"type":"Feature","properties":{"nombre":"Polígono sin título"},"geometry":{"type":"Polygon","coordinates":[[[-100.150832,20.529359],[-100.150391,20.52987],[-100.150446,20.529935],[-100.150894,20.529412],[-100.150832,20.529359]]]}},{"type":"Feature","properties":{"nombre":"Polígono sin título"},"geometry":{"type":"Polygon","coordinates":[[[-100.153022,20.531105],[-100.152981,20.531076],[-100.152513,20.531602],[-100.152562,20.53164],[-100.153022,20.531105]]]}},{"type":"Feature","properties":{"nombre":"Polígono sin título"},"geometry":{"type":"Polygon","coordinates":[[[-100.155075,20.532774],[-100.154615,20.533294],[-100.154677,20.533364],[-100.155113,20.532815],[-100.155075,20.532774]]]}},{"type":"Feature","properties":{"nombre":"Polígono sin título"},"geometry":{"type":"Polygon","coordinates":[[[-100.12647,20.509215],[-100.126077,20.508881],[-100.12596,20.508969],[-100.126302,20.50926],[-100.12647,20.509215]]]}},{"type":"Feature","properties":{"nombre":"Polígono sin título"},"geometry":{"type":"Polygon","coordinates":[[[-100.134527,20.515741],[-100.134499,20.51571],[-100.134359,20.515787],[-100.134397,20.515821],[-100.134527,20.515741]]]}},{"type":"Feature","properties":{"nombre":"Polígono sin título"},"geometry":{"type":"Polygon","coordinates":[[[-99.197018,19.82302],[-99.197084,19.823119],[-99.197116,19.823096],[-99.197072,19.822973],[-99.197018,19.82302]]]}},{"type":"Feature","properties":{"nombre":"Polígono sin título"},"geometry":{"type":"Polygon","coordinates":[[[-99.313072,20.026801],[-99.31307,20.026755],[-99.312691,20.026809],[-99.312687,20.026861],[-99.313072,20.026801]]]}},{"type":"Feature","properties":{"nombre":"Polígono sin título"},"geometry":{"type":"Polygon","coordinates":[[[-99.312791,20.032073],[-99.312809,20.032182],[-99.313151,20.030878],[-99.313126,20.030874],[-99.312791,20.032073]]]}},{"type":"Feature","properties":{"nombre":"Polígono sin título"},"geometry":{"type":"Polygon","coordinates":[[[-99.313193,20.033076],[-99.313194,20.033019],[-99.312811,20.03294],[-99.312819,20.033],[-99.313193,20.033076]]]}},{"type":"Feature","properties":{"nombre":"Polígono sin título"},"geometry":{"type":"Polygon","coordinates":[[[-99.31322,20.034274],[-99.313215,20.034249],[-99.313113,20.034301],[-99.312855,20.034437],[-99.312857,20.034497],[-99.313105,20.034335],[-99.31322,20.034274]]]}},{"type":"Feature","properties":{"nombre":"Polígono sin título"},"geometry":{"type":"Polygon","coordinates":[[[-99.309788,20.009667],[-99.309764,20.009593],[-99.309429,20.0096],[-99.309397,20.009652],[-99.309403,20.009674],[-99.309788,20.009667]]]}},{"type":"Feature","properties":{"nombre":"Polígono sin título"},"geometry":{"type":"Polygon","coordinates":[[[-99.369583,20.088403],[-99.369707,20.088361],[-99.370199,20.087852],[-99.370137,20.087824],[-99.369583,20.088403]]]}},{"type":"Feature","properties":{"nombre":"Polígono sin título"},"geometry":{"type":"Polygon","coordinates":[[[-99.42938,20.08059],[-99.429386,20.080754],[-99.429383,20.080853],[-99.429538,20.080811],[-99.42938,20.08059]]]}},{"type":"Feature","properties":{"nombre":"Polígono sin título"},"geometry":{"type":"Polygon","coordinates":[[[-99.791448,20.231141],[-99.79124,20.231085],[-99.790473,20.230858],[-99.787952,20.230028],[-99.786042,20.229383],[-99.782235,20.228077],[-99.780807,20.227659],[-99.778785,20.22719],[-99.778089,20.227441],[-99.779049,20.227608],[-99.782088,20.228418],[-99.783444,20.228838],[-99.785071,20.229411],[-99.786384,20.229861],[-99.787294,20.230184],[-99.789324,20.230875],[-99.790535,20.231251],[-99.791397,20.231501],[-99.791448,20.231141]]]}},{"type":"Feature","properties":{"nombre":"Polígono sin título"},"geometry":{"type":"Polygon","coordinates":[[[-99.746313,20.221681],[-99.746409,20.221993],[-99.746858,20.221828],[-99.746313,20.221681]]]}},{"type":"Feature","properties":{"nombre":"Polígono sin título"},"geometry":{"type":"Polygon","coordinates":[[[-99.736884,20.219212],[-99.73689,20.218871],[-99.736155,20.218622],[-99.735092,20.218364],[-99.735388,20.218663],[-99.735518,20.218822],[-99.736884,20.219212]]]}},{"type":"Feature","properties":{"nombre":"Polígono sin título"},"geometry":{"type":"Polygon","coordinates":[[[-99.732342,20.217665],[-99.732493,20.218008],[-99.732885,20.217791],[-99.732342,20.217665]]]}},{"type":"Feature","properties":{"nombre":"Polígono sin título"},"geometry":{"type":"Polygon","coordinates":[[[-99.727587,20.216928],[-99.727577,20.217067],[-99.727283,20.217272],[-99.728719,20.217436],[-99.728767,20.217425],[-99.72873,20.217078],[-99.727587,20.216928]]]}},{"type":"Feature","properties":{"nombre":"Polígono sin título"},"geometry":{"type":"Polygon","coordinates":[[[-99.700031,20.213959],[-99.699904,20.213638],[-99.698467,20.213762],[-99.698443,20.213923],[-99.69838,20.214041],[-99.698316,20.214151],[-99.700031,20.213959]]]}},{"type":"Feature","properties":{"nombre":"Polígono sin título"},"geometry":{"type":"Polygon","coordinates":[[[-99.689961,20.215781],[-99.68998,20.215659],[-99.687998,20.21608],[-99.687937,20.216181],[-99.689961,20.215781]]]}},{"type":"Feature","properties":{"nombre":"Polígono sin título"},"geometry":{"type":"Polygon","coordinates":[[[-99.690041,20.215504],[-99.690054,20.215398],[-99.688041,20.215804],[-99.688035,20.215877],[-99.688026,20.21594],[-99.690041,20.215504]]]}},{"type":"Feature","properties":{"nombre":"Polígono sin título"},"geometry":{"type":"Polygon","coordinates":[[[-99.768247,20.226751],[-99.768536,20.226752],[-99.768544,20.226369],[-99.767937,20.226386],[-99.768247,20.226751]]]}},{"type":"Feature","properties":{"nombre":"Polígono sin título"},"geometry":{"type":"Polygon","coordinates":[[[-100.123442,20.506996],[-100.123364,20.506996],[-100.123444,20.507059],[-100.123442,20.506996]]]}},{"type":"Feature","properties":{"nombre":"Polígono sin título"},"geometry":{"type":"Polygon","coordinates":[[[-100.124512,20.507626],[-100.121728,20.505333],[-100.12167,20.50561],[-100.124126,20.507598],[-100.124512,20.507626]]]}},{"type":"Feature","properties":{"nombre":"Polígono sin título"},"geometry":{"type":"Polygon","coordinates":[[[-100.13119,20.513079],[-100.129608,20.511815],[-100.129266,20.511815],[-100.130888,20.513192],[-100.13119,20.513079]]]}},{"type":"Feature","properties":{"nombre":"Polígono sin título"},"geometry":{"type":"Polygon","coordinates":[[[-100.134037,20.515602],[-100.134269,20.515827],[-100.134477,20.515718],[-100.134387,20.515632],[-100.134037,20.515602]]]}},{"type":"Feature","properties":{"nombre":"Polígono sin título"},"geometry":{"type":"Polygon","coordinates":[[[-100.13427,20.515834],[-100.135921,20.517178],[-100.136103,20.517013],[-100.134525,20.515747],[-100.13427,20.515834]]]}},{"type":"Feature","properties":{"nombre":"Polígono sin título"},"geometry":{"type":"Polygon","coordinates":[[[-100.135915,20.517184],[-100.137399,20.518526],[-100.137702,20.518325],[-100.13611,20.517027],[-100.135915,20.517184]]]}},{"type":"Feature","properties":{"nombre":"Polígono sin título"},"geometry":{"type":"Polygon","coordinates":[[[-100.140546,20.520947],[-100.141825,20.522021],[-100.142026,20.52235],[-100.142345,20.522091],[-100.142109,20.521977],[-100.140724,20.520749],[-100.140546,20.520947]]]}},{"type":"Feature","properties":{"nombre":"Polígono sin título"},"geometry":{"type":"Polygon","coordinates":[[[-99.345767,20.077229],[-99.345256,20.077239],[-99.348194,20.080113],[-99.348508,20.08002],[-99.34859,20.079977],[-99.345767,20.077229]]]}},{"type":"Feature","properties":{"nombre":"Polígono sin título"},"geometry":{"type":"Polygon","coordinates":[[[-100.041134,20.422548],[-100.041105,20.422685],[-100.042023,20.423483],[-100.042634,20.424036],[-100.042668,20.424021],[-100.042793,20.424112],[-100.042868,20.423962],[-100.042016,20.423238],[-100.041134,20.422548]]]}},{"type":"Feature","properties":{"nombre":"Polígono sin título"},"geometry":{"type":"Polygon","coordinates":[[[-100.045958,20.427285],[-100.045879,20.427482],[-100.047213,20.428988],[-100.047539,20.429197],[-100.04757,20.429133],[-100.045958,20.427285]]]}},{"type":"Feature","properties":{"nombre":"Polígono sin título"},"geometry":{"type":"Polygon","coordinates":[[[-100.044476,20.425566],[-100.044415,20.425712],[-100.044601,20.425962],[-100.044913,20.426079],[-100.044476,20.425566]]]}},{"type":"Feature","properties":{"nombre":"Polígono sin título"},"geometry":{"type":"Polygon","coordinates":[[[-100.044482,20.425569],[-100.043969,20.425058],[-100.043474,20.424772],[-100.044387,20.425716],[-100.044482,20.425569]]]}},{"type":"Feature","properties":{"nombre":"Polígono sin título"},"geometry":{"type":"Polygon","coordinates":[[[-100.043625,20.424683],[-100.042876,20.423968],[-100.042776,20.424111],[-100.043431,20.424747],[-100.043952,20.425031],[-100.043625,20.424683]]]}},{"type":"Feature","properties":{"nombre":"Polígono sin título"},"geometry":{"type":"Polygon","coordinates":[[[-100.04113,20.422545],[-100.040554,20.422104],[-100.040452,20.42213],[-100.040311,20.422218],[-100.04105,20.422699],[-100.041074,20.422681],[-100.04113,20.422545]]]}},{"type":"Feature","properties":{"nombre":"Polígono sin título"},"geometry":{"type":"Polygon","coordinates":[[[-100.048993,20.430785],[-100.048864,20.430648],[-100.047577,20.429141],[-100.047547,20.429199],[-100.047545,20.4293],[-100.048688,20.43061],[-100.048817,20.430777],[-100.048993,20.430785]]]}},{"type":"Feature","properties":{"nombre":"Polígono sin título"},"geometry":{"type":"Polygon","coordinates":[[[-100.036183,20.418878],[-100.036301,20.418643],[-100.035983,20.418466],[-100.035602,20.418238],[-100.034481,20.417373],[-100.034455,20.417407],[-100.033529,20.416697],[-100.032037,20.415551],[-100.031974,20.415686],[-100.036183,20.418878]]]}},{"type":"Feature","properties":{"nombre":"Polígono sin título"},"geometry":{"type":"Polygon","coordinates":[[[-100.036203,20.418885],[-100.037371,20.419762],[-100.037463,20.419745],[-100.036245,20.418805],[-100.036203,20.418885]]]}},{"type":"Feature","properties":{"nombre":"Polígono sin título"},"geometry":{"type":"Polygon","coordinates":[[[-100.029677,20.413728],[-100.029279,20.413448],[-100.028544,20.412861],[-100.027885,20.412227],[-100.027805,20.41238],[-100.029674,20.413851],[-100.029677,20.413728]]]}},{"type":"Feature","properties":{"nombre":"Polígono sin título"},"geometry":{"type":"Polygon","coordinates":[[[-100.026164,20.408849],[-100.026066,20.408346],[-100.025979,20.408306],[-100.025998,20.408476],[-100.026015,20.408728],[-100.026025,20.409001],[-100.026182,20.409627],[-100.026612,20.410688],[-100.026853,20.411091],[-100.027013,20.411363],[-100.027805,20.412372],[-100.027854,20.412235],[-100.02731,20.411563],[-100.026745,20.410648],[-100.026383,20.409768],[-100.026164,20.408849]]]}},{"type":"Feature","properties":{"nombre":"Polígono sin título"},"geometry":{"type":"Polygon","coordinates":[[[-100.057003,20.440366],[-100.057121,20.440202],[-100.05439,20.436995],[-100.054045,20.437002],[-100.057003,20.440366]]]}},{"type":"Feature","properties":{"nombre":"Polígono sin título"},"geometry":{"type":"Polygon","coordinates":[[[-99.337861,20.069743],[-99.337407,20.069524],[-99.336942,20.069396],[-99.336951,20.069491],[-99.336556,20.069411],[-99.337131,20.06969],[-99.337735,20.069842],[-99.337749,20.069828],[-99.338278,20.070045],[-99.337861,20.069743]]]}},{"type":"Feature","properties":{"nombre":"Polígono sin título"},"geometry":{"type":"Polygon","coordinates":[[[-99.336424,20.068988],[-99.335859,20.06877],[-99.335095,20.068559],[-99.332562,20.067841],[-99.332515,20.067872],[-99.332413,20.068084],[-99.332401,20.068144],[-99.332561,20.068198],[-99.333532,20.068483],[-99.334963,20.068888],[-99.33557,20.069055],[-99.335667,20.068958],[-99.335864,20.068932],[-99.336181,20.068934],[-99.336424,20.068988]]]}},{"type":"Feature","properties":{"nombre":"Polígono sin título"},"geometry":{"type":"Polygon","coordinates":[[[-99.342681,20.07422],[-99.342573,20.074125],[-99.34289,20.074919],[-99.342991,20.075023],[-99.342681,20.07422]]]}},{"type":"Feature","properties":{"nombre":"Polígono sin título"},"geometry":{"type":"Polygon","coordinates":[[[-99.33848,20.070192],[-99.338533,20.070258],[-99.33857,20.070262],[-99.33848,20.070192]]]}},{"type":"Feature","properties":{"nombre":"Polígono sin título"},"geometry":{"type":"Polygon","coordinates":[[[-99.345763,20.077231],[-99.345732,20.077189],[-99.345071,20.077058],[-99.345251,20.077229],[-99.345763,20.077231]]]}},{"type":"Feature","properties":{"nombre":"Polígono sin título"},"geometry":{"type":"Polygon","coordinates":[[[-99.344416,20.076315],[-99.344256,20.075985],[-99.344402,20.075885],[-99.34404,20.075538],[-99.343515,20.075541],[-99.344672,20.076671],[-99.344416,20.076315]]]}},{"type":"Feature","properties":{"nombre":"Polígono sin título"},"geometry":{"type":"Polygon","coordinates":[[[-99.343017,20.074544],[-99.342822,20.074535],[-99.343006,20.075029],[-99.343506,20.075527],[-99.344013,20.075519],[-99.343017,20.074544]]]}},{"type":"Feature","properties":{"nombre":"Polígono sin título"},"geometry":{"type":"Polygon","coordinates":[[[-99.342539,20.074085],[-99.342214,20.07378],[-99.341699,20.073783],[-99.342822,20.07487],[-99.342539,20.074085]]]}},{"type":"Feature","properties":{"nombre":"Polígono sin título"},"geometry":{"type":"Polygon","coordinates":[[[-99.34089,20.072517],[-99.339548,20.071202],[-99.339916,20.072056],[-99.341671,20.073745],[-99.342213,20.073748],[-99.34089,20.072517]]]}},{"type":"Feature","properties":{"nombre":"Polígono sin título"},"geometry":{"type":"Polygon","coordinates":[[[-99.337837,20.069714],[-99.337248,20.069336],[-99.336915,20.069183],[-99.336925,20.069358],[-99.337404,20.069508],[-99.337837,20.069714]]]}},{"type":"Feature","properties":{"nombre":"Polígono sin título"},"geometry":{"type":"Polygon","coordinates":[[[-99.942689,20.372062],[-99.941233,20.371326],[-99.938905,20.370111],[-99.936147,20.368621],[-99.935786,20.368235],[-99.935606,20.367979],[-99.935398,20.367709],[-99.935229,20.367397],[-99.935209,20.367693],[-99.935237,20.368074],[-99.935669,20.368503],[-99.935734,20.36853],[-99.936757,20.369052],[-99.938591,20.370021],[-99.939633,20.370579],[-99.941113,20.371354],[-99.942525,20.372071],[-99.943006,20.372259],[-99.943781,20.372549],[-99.943782,20.372478],[-99.942689,20.372062]]]}},{"type":"Feature","properties":{"nombre":"Polígono sin título"},"geometry":{"type":"Polygon","coordinates":[[[-100.019784,20.384051],[-100.019573,20.383716],[-100.019545,20.383729],[-100.019759,20.384067],[-100.019784,20.384051]]]}},{"type":"Feature","properties":{"nombre":"Polígono sin título"},"geometry":{"type":"Polygon","coordinates":[[[-100.032019,20.415551],[-100.031178,20.414905],[-100.029713,20.413781],[-100.029641,20.413839],[-100.031951,20.415673],[-100.032019,20.415551]]]}},{"type":"Feature","properties":{"nombre":"Polígono sin título"},"geometry":{"type":"Polygon","coordinates":[[[-100.200483,20.607729],[-100.200165,20.607342],[-100.199428,20.607536],[-100.199704,20.607907],[-100.200483,20.607729]]]}},{"type":"Feature","properties":{"nombre":"Polígono sin título"},"geometry":{"type":"Polygon","coordinates":[[[-100.200534,20.607801],[-100.200522,20.607735],[-100.199705,20.607933],[-100.199765,20.60798],[-100.200534,20.607801]]]}},{"type":"Feature","properties":{"nombre":"Polígono sin título"},"geometry":{"type":"Polygon","coordinates":[[[-100.197004,20.602429],[-100.197407,20.603375],[-100.197635,20.603758],[-100.198104,20.604581],[-100.198521,20.605322],[-100.198588,20.605317],[-100.198614,20.605329],[-100.198628,20.605305],[-100.197724,20.603762],[-100.197338,20.603067],[-100.196865,20.602002],[-100.196627,20.601446],[-100.196621,20.601448],[-100.196586,20.601461],[-100.197004,20.602429]]]}},{"type":"Feature","properties":{"nombre":"Polígono sin título"},"geometry":{"type":"Polygon","coordinates":[[[-100.196066,20.600027],[-100.195993,20.600087],[-100.196534,20.601455],[-100.196634,20.601447],[-100.196066,20.600027]]]}},{"type":"Feature","properties":{"nombre":"Polígono sin título"},"geometry":{"type":"Polygon","coordinates":[[[-100.197401,20.603393],[-100.197309,20.603416],[-100.197373,20.603597],[-100.197496,20.603542],[-100.197401,20.603393]]]}},{"type":"Feature","properties":{"nombre":"Polígono sin título"},"geometry":{"type":"Polygon","coordinates":[[[-100.193231,20.592821],[-100.193197,20.592975],[-100.193306,20.593236],[-100.193392,20.593226],[-100.193231,20.592821]]]}},{"type":"Feature","properties":{"nombre":"Polígono sin título"},"geometry":{"type":"Polygon","coordinates":[[[-100.157174,20.534493],[-100.150836,20.52935],[-100.149082,20.527949],[-100.147612,20.526394],[-100.146807,20.525748],[-100.146432,20.525485],[-100.145751,20.52504],[-100.144708,20.52423],[-100.14395,20.524947],[-100.146265,20.526367],[-100.146352,20.526394],[-100.148528,20.52806],[-100.148377,20.528241],[-100.156739,20.535019],[-100.157174,20.534493]]]}},{"type":"Feature","properties":{"nombre":"Polígono sin título"},"geometry":{"type":"Polygon","coordinates":[[[-100.107755,20.494213],[-100.107812,20.494092],[-100.104075,20.491065],[-100.102322,20.489625],[-100.102447,20.489927],[-100.107755,20.494213]]]}},{"type":"Feature","properties":{"nombre":"Polígono sin título"},"geometry":{"type":"Polygon","coordinates":[[[-100.111224,20.496848],[-100.111049,20.496915],[-100.111442,20.497201],[-100.111638,20.49712],[-100.111224,20.496848]]]}},{"type":"Feature","properties":{"nombre":"Polígono sin título"},"geometry":{"type":"Polygon","coordinates":[[[-100.179026,20.556787],[-100.178117,20.554423],[-100.178075,20.55466],[-100.178948,20.556758],[-100.179026,20.556787]]]}},{"type":"Feature","properties":{"nombre":"Polígono sin título"},"geometry":{"type":"Polygon","coordinates":[[[-100.17937,20.557631],[-100.179333,20.557542],[-100.179244,20.557534],[-100.179281,20.557625],[-100.17937,20.557631]]]}},{"type":"Feature","properties":{"nombre":"Polígono sin título"},"geometry":{"type":"Polygon","coordinates":[[[-100.178134,20.554401],[-100.176755,20.551173],[-100.176512,20.550956],[-100.17632,20.550967],[-100.176136,20.551457],[-100.176893,20.55253],[-100.177559,20.553661],[-100.178053,20.554637],[-100.178134,20.554401]]]}},{"type":"Feature","properties":{"nombre":"Polígono sin título"},"geometry":{"type":"Polygon","coordinates":[[[-100.137757,20.51836],[-100.137442,20.518578],[-100.138771,20.520058],[-100.139267,20.519582],[-100.137757,20.51836]]]}},{"type":"Feature","properties":{"nombre":"Polígono sin título"},"geometry":{"type":"Polygon","coordinates":[[[-100.024999,20.389366],[-100.025191,20.389397],[-100.02402,20.388325],[-100.023949,20.388342],[-100.024999,20.389366]]]}},{"type":"Feature","properties":{"nombre":"Polígono sin título"},"geometry":{"type":"Polygon","coordinates":[[[-100.027298,20.403148],[-100.026847,20.40442],[-100.026873,20.40443],[-100.027354,20.403086],[-100.027337,20.402991],[-100.027298,20.403148]]]}},{"type":"Feature","properties":{"nombre":"Polígono sin título"},"geometry":{"type":"Polygon","coordinates":[[[-100.101678,20.488668],[-100.101163,20.488241],[-100.100949,20.488073],[-100.101244,20.488342],[-100.101678,20.488668]]]}},{"type":"Feature","properties":{"nombre":"Polígono sin título"},"geometry":{"type":"Polygon","coordinates":[[[-100.166074,20.542504],[-100.165792,20.541795],[-100.161752,20.538202],[-100.162125,20.539372],[-100.166074,20.542504]]]}},{"type":"Feature","properties":{"nombre":"Polígono sin título"},"geometry":{"type":"Polygon","coordinates":[[[-99.306205,19.962427],[-99.306502,19.962553],[-99.306439,19.962183],[-99.306202,19.96094],[-99.305941,19.95988],[-99.305658,19.959161],[-99.305134,19.957764],[-99.304536,19.95659],[-99.303687,19.954801],[-99.302603,19.952631],[-99.30152,19.950591],[-99.301113,19.95058],[-99.302733,19.953774],[-99.303332,19.954953],[-99.304116,19.956541],[-99.304648,19.957539],[-99.305269,19.959227],[-99.305882,19.961133],[-99.306085,19.962293],[-99.306205,19.962427]]]}},{"type":"Feature","properties":{"nombre":"Polígono sin título"},"geometry":{"type":"Polygon","coordinates":[[[-99.299709,19.946956],[-99.29937,19.946268],[-99.299,19.946335],[-99.29921,19.946792],[-99.29948,19.946829],[-99.299529,19.946892],[-99.299493,19.946946],[-99.299709,19.946956]]]}},{"type":"Feature","properties":{"nombre":"Polígono sin título"},"geometry":{"type":"Polygon","coordinates":[[[-99.30035,19.948224],[-99.29973,19.946968],[-99.299474,19.946985],[-99.299386,19.94708],[-99.30004,19.948378],[-99.30035,19.948224]]]}},{"type":"Feature","properties":{"nombre":"Polígono sin título"},"geometry":{"type":"Polygon","coordinates":[[[-99.300015,19.948361],[-99.300523,19.949387],[-99.300663,19.949411],[-99.300968,19.94943],[-99.300357,19.948238],[-99.300015,19.948361]]]}},{"type":"Feature","properties":{"nombre":"Polígono sin título"},"geometry":{"type":"Polygon","coordinates":[[[-99.305539,19.976279],[-99.305138,19.976413],[-99.305114,19.976523],[-99.305177,19.97663],[-99.305477,19.976666],[-99.305539,19.976279]]]}},{"type":"Feature","properties":{"nombre":"Polígono sin título"},"geometry":{"type":"Polygon","coordinates":[[[-99.305287,19.978447],[-99.305287,19.97838],[-99.304953,19.977951],[-99.304959,19.978027],[-99.305287,19.978447]]]}},{"type":"Feature","properties":{"nombre":"Polígono sin título"},"geometry":{"type":"Polygon","coordinates":[[[-99.30095,19.949437],[-99.300854,19.949453],[-99.301004,19.950233],[-99.301246,19.950326],[-99.301217,19.950541],[-99.301534,19.950555],[-99.30095,19.949437]]]}},{"type":"Feature","properties":{"nombre":"Polígono sin título"},"geometry":{"type":"Polygon","coordinates":[[[-99.304976,19.977882],[-99.305239,19.977737],[-99.305381,19.977568],[-99.305381,19.977489],[-99.305213,19.9777],[-99.304994,19.977806],[-99.304976,19.977882]]]}},{"type":"Feature","properties":{"nombre":"Polígono sin título"},"geometry":{"type":"Polygon","coordinates":[[[-99.304839,19.979012],[-99.304831,19.979257],[-99.305018,19.979461],[-99.305164,19.97941],[-99.305166,19.979352],[-99.304839,19.979012]]]}},{"type":"Feature","properties":{"nombre":"Polígono sin título"},"geometry":{"type":"Polygon","coordinates":[[[-100.184478,20.57063],[-100.183733,20.56875],[-100.183675,20.568773],[-100.184404,20.570637],[-100.184478,20.57063]]]}},{"type":"Feature","properties":{"nombre":"Polígono sin título"},"geometry":{"type":"Polygon","coordinates":[[[-99.929797,20.339782],[-99.929697,20.339737],[-99.929513,20.340171],[-99.929359,20.340784],[-99.929298,20.341562],[-99.929296,20.342268],[-99.929377,20.342687],[-99.929582,20.343318],[-99.929895,20.343946],[-99.930186,20.344419],[-99.930668,20.345151],[-99.931248,20.345967],[-99.931876,20.346837],[-99.932279,20.347496],[-99.932604,20.348284],[-99.932685,20.348679],[-99.932717,20.349021],[-99.933266,20.354138],[-99.934337,20.365254],[-99.934682,20.365217],[-99.934514,20.363265],[-99.933841,20.356309],[-99.933332,20.350951],[-99.932907,20.348364],[-99.932084,20.346817],[-99.93083,20.345135],[-99.930263,20.344424],[-99.929711,20.343318],[-99.92944,20.342219],[-99.92939,20.341561],[-99.929529,20.340572],[-99.929797,20.339782]]]}},{"type":"Feature","properties":{"nombre":"Polígono sin título"},"geometry":{"type":"Polygon","coordinates":[[[-99.934685,20.365256],[-99.93434,20.365282],[-99.934464,20.366255],[-99.934523,20.366642],[-99.934878,20.366612],[-99.934685,20.365256]]]}},{"type":"Feature","properties":{"nombre":"Polígono sin título"},"geometry":{"type":"Polygon","coordinates":[[[-100.194946,20.597382],[-100.195023,20.597344],[-100.194479,20.59603],[-100.194405,20.596025],[-100.194946,20.597382]]]}},{"type":"Feature","properties":{"nombre":"Polígono sin título"},"geometry":{"type":"Polygon","coordinates":[[[-100.182401,20.565545],[-100.182463,20.565545],[-100.181812,20.563853],[-100.181741,20.563858],[-100.182401,20.565545]]]}},{"type":"Feature","properties":{"nombre":"Polígono sin título"},"geometry":{"type":"Polygon","coordinates":[[[-100.161804,20.538595],[-100.161673,20.538096],[-100.157839,20.535003],[-100.158263,20.536274],[-100.161314,20.538718],[-100.161804,20.538595]]]}},{"type":"Feature","properties":{"nombre":"Polígono sin título"},"geometry":{"type":"Polygon","coordinates":[[[-99.50541,20.130864],[-99.505399,20.130848],[-99.505398,20.130862],[-99.50541,20.130864]]]}},{"type":"Feature","properties":{"nombre":"Polígono sin título"},"geometry":{"type":"Polygon","coordinates":[[[-99.494126,20.115621],[-99.494639,20.115751],[-99.493658,20.11421],[-99.493401,20.114223],[-99.493649,20.114841],[-99.494126,20.115621]]]}},{"type":"Feature","properties":{"nombre":"Polígono sin título"},"geometry":{"type":"Polygon","coordinates":[[[-99.494884,20.116129],[-99.49475,20.116292],[-99.49495,20.116285],[-99.494884,20.116129]]]}},{"type":"Feature","properties":{"nombre":"Polígono sin título"},"geometry":{"type":"Polygon","coordinates":[[[-99.493427,20.114492],[-99.493308,20.114228],[-99.493226,20.114227],[-99.493427,20.114492]]]}},{"type":"Feature","properties":{"nombre":"Polígono sin título"},"geometry":{"type":"Polygon","coordinates":[[[-99.494542,20.116294],[-99.494812,20.116028],[-99.494705,20.115859],[-99.494212,20.115737],[-99.494542,20.116294]]]}},{"type":"Feature","properties":{"nombre":"Polígono sin título"},"geometry":{"type":"Polygon","coordinates":[[[-99.493665,20.114207],[-99.493428,20.113904],[-99.493389,20.114226],[-99.493665,20.114207]]]}},{"type":"Feature","properties":{"nombre":"Polígono sin título"},"geometry":{"type":"Polygon","coordinates":[[[-99.49333,20.113784],[-99.492299,20.112415],[-99.491794,20.111864],[-99.491086,20.111123],[-99.490274,20.11032],[-99.489907,20.110261],[-99.49019,20.110699],[-99.490719,20.111232],[-99.491399,20.111933],[-99.491848,20.112433],[-99.492139,20.112798],[-99.492804,20.113629],[-99.493211,20.114196],[-99.493313,20.114196],[-99.49333,20.113784]]]}},{"type":"Feature","properties":{"nombre":"Polígono sin título"},"geometry":{"type":"Polygon","coordinates":[[[-99.489524,20.109635],[-99.489883,20.110274],[-99.490275,20.110304],[-99.489524,20.109635]]]}},{"type":"Feature","properties":{"nombre":"Polígono sin título"},"geometry":{"type":"Polygon","coordinates":[[[-99.538484,20.195002],[-99.538714,20.194877],[-99.537517,20.193828],[-99.537305,20.194078],[-99.538422,20.195104],[-99.538484,20.195002]]]}},{"type":"Feature","properties":{"nombre":"Polígono sin título"},"geometry":{"type":"Polygon","coordinates":[[[-99.539494,20.195601],[-99.538652,20.195345],[-99.540181,20.196688],[-99.540315,20.196329],[-99.539494,20.195601]]]}},{"type":"Feature","properties":{"nombre":"Polígono sin título"},"geometry":{"type":"Polygon","coordinates":[[[-99.944125,20.321129],[-99.944478,20.321094],[-99.944419,20.320572],[-99.944191,20.319944],[-99.943776,20.318959],[-99.942759,20.316866],[-99.942367,20.316893],[-99.942914,20.31798],[-99.943627,20.319465],[-99.943932,20.320121],[-99.944125,20.321129]]]}},{"type":"Feature","properties":{"nombre":"Polígono sin título"},"geometry":{"type":"Polygon","coordinates":[[[-99.939465,20.310946],[-99.939872,20.310946],[-99.939689,20.310557],[-99.939285,20.310569],[-99.939465,20.310946]]]}},{"type":"Feature","properties":{"nombre":"Polígono sin título"},"geometry":{"type":"Polygon","coordinates":[[[-99.938944,20.309027],[-99.938829,20.309109],[-99.938989,20.309305],[-99.938738,20.309445],[-99.939217,20.310458],[-99.939601,20.310366],[-99.938944,20.309027]]]}},{"type":"Feature","properties":{"nombre":"Polígono sin título"},"geometry":{"type":"Polygon","coordinates":[[[-99.93811,20.307237],[-99.938027,20.307069],[-99.937718,20.307297],[-99.937802,20.30749],[-99.93811,20.307237]]]}},{"type":"Feature","properties":{"nombre":"Polígono sin título"},"geometry":{"type":"Polygon","coordinates":[[[-99.937214,20.299921],[-99.937271,20.297467],[-99.93691,20.297485],[-99.936847,20.299907],[-99.937214,20.299921]]]}},{"type":"Feature","properties":{"nombre":"Polígono sin título"},"geometry":{"type":"Polygon","coordinates":[[[-99.937923,20.306784],[-99.937824,20.306494],[-99.93751,20.306729],[-99.937602,20.307014],[-99.937923,20.306784]]]}},{"type":"Feature","properties":{"nombre":"Polígono sin título"},"geometry":{"type":"Polygon","coordinates":[[[-99.936794,20.302772],[-99.936911,20.302701],[-99.936794,20.302556],[-99.936794,20.302772]]]}},{"type":"Feature","properties":{"nombre":"Polígono sin título"},"geometry":{"type":"Polygon","coordinates":[[[-99.937194,20.300987],[-99.936861,20.301093],[-99.937196,20.301503],[-99.937194,20.300987]]]}},{"type":"Feature","properties":{"nombre":"Polígono sin título"},"geometry":{"type":"Polygon","coordinates":[[[-99.937189,20.300971],[-99.937208,20.300151],[-99.937218,20.299903],[-99.936848,20.299911],[-99.936835,20.301088],[-99.937189,20.300971]]]}},{"type":"Feature","properties":{"nombre":"Polígono sin título"},"geometry":{"type":"Polygon","coordinates":[[[-99.937195,20.301527],[-99.936851,20.301102],[-99.936827,20.301122],[-99.937182,20.301589],[-99.937195,20.301527]]]}},{"type":"Feature","properties":{"nombre":"Polígono sin título"},"geometry":{"type":"Polygon","coordinates":[[[-99.942788,20.324818],[-99.942412,20.325076],[-99.942032,20.325366],[-99.942258,20.325367],[-99.942788,20.324818]]]}},{"type":"Feature","properties":{"nombre":"Polígono sin título"},"geometry":{"type":"Polygon","coordinates":[[[-99.941084,20.326248],[-99.940052,20.327496],[-99.940099,20.327623],[-99.941222,20.326484],[-99.941084,20.326248]]]}},{"type":"Feature","properties":{"nombre":"Polígono sin título"},"geometry":{"type":"Polygon","coordinates":[[[-99.939866,20.327891],[-99.939834,20.327731],[-99.939481,20.328137],[-99.939511,20.32824],[-99.939866,20.327891]]]}},{"type":"Feature","properties":{"nombre":"Polígono sin título"},"geometry":{"type":"Polygon","coordinates":[[[-99.943408,20.323587],[-99.943233,20.323797],[-99.943265,20.323838],[-99.943773,20.323587],[-99.943583,20.323317],[-99.943408,20.323587]]]}},{"type":"Feature","properties":{"nombre":"Polígono sin título"},"geometry":{"type":"Polygon","coordinates":[[[-99.530196,20.183758],[-99.529821,20.183824],[-99.530048,20.184662],[-99.530411,20.184571],[-99.530196,20.183758]]]}},{"type":"Feature","properties":{"nombre":"Polígono sin título"},"geometry":{"type":"Polygon","coordinates":[[[-99.512398,20.144379],[-99.512455,20.144614],[-99.512498,20.144606],[-99.512398,20.144379]]]}},{"type":"Feature","properties":{"nombre":"Polígono sin título"},"geometry":{"type":"Polygon","coordinates":[[[-99.52934,20.180406],[-99.529063,20.180744],[-99.529066,20.180834],[-99.529367,20.181977],[-99.529952,20.182824],[-99.52934,20.180406]]]}},{"type":"Feature","properties":{"nombre":"Polígono sin título"},"geometry":{"type":"Polygon","coordinates":[[[-99.528162,20.175917],[-99.528075,20.175917],[-99.528104,20.176027],[-99.528203,20.176021],[-99.528162,20.175917]]]}},{"type":"Feature","properties":{"nombre":"Polígono sin título"},"geometry":{"type":"Polygon","coordinates":[[[-99.531382,20.187063],[-99.531205,20.186694],[-99.53087,20.186579],[-99.530833,20.186635],[-99.53084,20.186704],[-99.530842,20.186787],[-99.530899,20.186929],[-99.531683,20.187622],[-99.531382,20.187063]]]}},{"type":"Feature","properties":{"nombre":"Polígono sin título"},"geometry":{"type":"Polygon","coordinates":[[[-99.528275,20.177728],[-99.528664,20.177783],[-99.52825,20.176151],[-99.528161,20.176796],[-99.528058,20.176867],[-99.528275,20.177728]]]}},{"type":"Feature","properties":{"nombre":"Polígono sin título"},"geometry":{"type":"Polygon","coordinates":[[[-99.51782,20.153421],[-99.518021,20.153311],[-99.517851,20.152915],[-99.516483,20.151278],[-99.51627,20.151592],[-99.51782,20.153421]]]}},{"type":"Feature","properties":{"nombre":"Polígono sin título"},"geometry":{"type":"Polygon","coordinates":[[[-99.528769,20.179433],[-99.528695,20.179402],[-99.528791,20.179765],[-99.528769,20.179433]]]}},{"type":"Feature","properties":{"nombre":"Polígono sin título"},"geometry":{"type":"Polygon","coordinates":[[[-99.528672,20.177793],[-99.528273,20.177725],[-99.528633,20.179167],[-99.52895,20.179306],[-99.529049,20.179272],[-99.528672,20.177793]]]}},{"type":"Feature","properties":{"nombre":"Polígono sin título"},"geometry":{"type":"Polygon","coordinates":[[[-99.512501,20.14461],[-99.51246,20.144618],[-99.512689,20.145204],[-99.512812,20.145361],[-99.512501,20.14461]]]}},{"type":"Feature","properties":{"nombre":"Polígono sin título"},"geometry":{"type":"Polygon","coordinates":[[[-99.515969,20.150661],[-99.515615,20.150814],[-99.516219,20.151527],[-99.516436,20.151223],[-99.515969,20.150661]]]}},{"type":"Feature","properties":{"nombre":"Polígono sin título"},"geometry":{"type":"Polygon","coordinates":[[[-99.527586,20.173537],[-99.527251,20.173508],[-99.527242,20.173696],[-99.527665,20.175388],[-99.528058,20.175405],[-99.527586,20.173537]]]}},{"type":"Feature","properties":{"nombre":"Polígono sin título"},"geometry":{"type":"Polygon","coordinates":[[[-99.524393,20.161719],[-99.524101,20.16109],[-99.524255,20.162048],[-99.524393,20.161719]]]}},{"type":"Feature","properties":{"nombre":"Polígono sin título"},"geometry":{"type":"Polygon","coordinates":[[[-99.524246,20.162093],[-99.524155,20.162107],[-99.524177,20.16217],[-99.524246,20.162093]]]}},{"type":"Feature","properties":{"nombre":"Polígono sin título"},"geometry":{"type":"Polygon","coordinates":[[[-99.524856,20.162964],[-99.524653,20.162375],[-99.524422,20.161769],[-99.52421,20.162218],[-99.524375,20.162688],[-99.524456,20.162946],[-99.524564,20.163259],[-99.524939,20.163285],[-99.524856,20.162964]]]}},{"type":"Feature","properties":{"nombre":"Polígono sin título"},"geometry":{"type":"Polygon","coordinates":[[[-99.527234,20.173694],[-99.527243,20.173505],[-99.527187,20.173499],[-99.527234,20.173694]]]}},{"type":"Feature","properties":{"nombre":"Polígono sin título"},"geometry":{"type":"Polygon","coordinates":[[[-99.519117,20.154417],[-99.51895,20.154374],[-99.519162,20.155015],[-99.519739,20.155154],[-99.519117,20.154417]]]}},{"type":"Feature","properties":{"nombre":"Polígono sin título"},"geometry":{"type":"Polygon","coordinates":[[[-99.313019,20.024632],[-99.312644,20.024507],[-99.312699,20.026807],[-99.313056,20.026747],[-99.313019,20.024632]]]}},{"type":"Feature","properties":{"nombre":"Polígono sin título"},"geometry":{"type":"Polygon","coordinates":[[[-99.313027,20.024634],[-99.313022,20.024304],[-99.312811,20.024565],[-99.313027,20.024634]]]}},{"type":"Feature","properties":{"nombre":"Polígono sin título"},"geometry":{"type":"Polygon","coordinates":[[[-99.312946,20.022957],[-99.312891,20.02221],[-99.312517,20.022359],[-99.312569,20.022857],[-99.312946,20.022957]]]}},{"type":"Feature","properties":{"nombre":"Polígono sin título"},"geometry":{"type":"Polygon","coordinates":[[[-99.993634,20.362526],[-99.994731,20.36238],[-99.995516,20.362384],[-99.9964,20.362452],[-99.99722,20.362631],[-99.997757,20.362796],[-99.999268,20.363267],[-99.999287,20.363231],[-99.999287,20.363192],[-99.997975,20.362727],[-99.997115,20.36249],[-99.996367,20.362357],[-99.995672,20.362288],[-99.994983,20.362271],[-99.994512,20.362296],[-99.992997,20.362555],[-99.992386,20.362719],[-99.989399,20.363459],[-99.988776,20.363621],[-99.987321,20.363976],[-99.985437,20.364438],[-99.983726,20.3649],[-99.982278,20.365286],[-99.982265,20.365482],[-99.993634,20.362526]]]}},{"type":"Feature","properties":{"nombre":"Polígono sin título"},"geometry":{"type":"Polygon","coordinates":[[[-100.018802,20.378561],[-100.018768,20.378699],[-100.018678,20.379129],[-100.018586,20.379595],[-100.018556,20.379959],[-100.018522,20.380402],[-100.018544,20.380677],[-100.018555,20.380942],[-100.01856,20.381148],[-100.01859,20.381415],[-100.018658,20.381743],[-100.018704,20.381966],[-100.018779,20.382249],[-100.01888,20.38256],[-100.018947,20.382755],[-100.01905,20.382998],[-100.019099,20.383104],[-100.019157,20.383251],[-100.01922,20.383389],[-100.019276,20.383493],[-100.019337,20.383611],[-100.019395,20.383718],[-100.019467,20.383866],[-100.019553,20.384027],[-100.019627,20.38414],[-100.01969,20.384237],[-100.019761,20.384209],[-100.01972,20.384149],[-100.019428,20.383696],[-100.019268,20.383403],[-100.018923,20.382586],[-100.018785,20.382068],[-100.018657,20.381542],[-100.018564,20.380568],[-100.01858,20.380084],[-100.01867,20.379413],[-100.018852,20.37864],[-100.019184,20.377738],[-100.019536,20.3769],[-100.019883,20.376097],[-100.02014,20.375468],[-100.020343,20.374819],[-100.020442,20.374418],[-100.020524,20.373809],[-100.020566,20.373311],[-100.020477,20.373371],[-100.020445,20.373641],[-100.020434,20.37392],[-100.020384,20.374219],[-100.020324,20.374514],[-100.02023,20.374895],[-100.020091,20.375366],[-100.018802,20.378561]]]}},{"type":"Feature","properties":{"nombre":"Polígono sin título"},"geometry":{"type":"Polygon","coordinates":[[[-100.026877,20.391402],[-100.02705,20.391695],[-100.027255,20.392042],[-100.027601,20.392674],[-100.027793,20.393083],[-100.027946,20.393447],[-100.028131,20.393943],[-100.028222,20.394256],[-100.028343,20.394589],[-100.028396,20.39485],[-100.028501,20.395347],[-100.028568,20.39585],[-100.028617,20.396136],[-100.028645,20.39641],[-100.028667,20.396647],[-100.028693,20.396884],[-100.028687,20.397127],[-100.028686,20.397751],[-100.028677,20.39806],[-100.028648,20.398447],[-100.028611,20.398556],[-100.028604,20.398765],[-100.028569,20.398911],[-100.028533,20.399064],[-100.028475,20.399378],[-100.028413,20.399686],[-100.028315,20.399999],[-100.028217,20.400261],[-100.028121,20.400579],[-100.02804,20.400758],[-100.027927,20.401124],[-100.027983,20.401184],[-100.028052,20.401006],[-100.028141,20.400831],[-100.028236,20.40057],[-100.028342,20.4003],[-100.028441,20.399923],[-100.028518,20.399515],[-100.028602,20.399089],[-100.028665,20.398754],[-100.028716,20.398243],[-100.028722,20.397676],[-100.028755,20.397067],[-100.028745,20.396588],[-100.028674,20.396076],[-100.028618,20.395688],[-100.028572,20.395257],[-100.028495,20.394638],[-100.027978,20.393242],[-100.028086,20.393241],[-100.027088,20.391385],[-100.027008,20.391441],[-100.025905,20.390111],[-100.025164,20.389395],[-100.026877,20.391402]]]}},{"type":"Feature","properties":{"nombre":"Polígono sin título"},"geometry":{"type":"Polygon","coordinates":[[[-100.026432,20.405149],[-100.025981,20.406673],[-100.026061,20.406715],[-100.026327,20.406002],[-100.02686,20.404429],[-100.027357,20.402941],[-100.027305,20.402926],[-100.026432,20.405149]]]}},{"type":"Feature","properties":{"nombre":"Polígono sin título"},"geometry":{"type":"Polygon","coordinates":[[[-99.305066,19.980318],[-99.304715,19.980098],[-99.304522,19.982081],[-99.304859,19.98227],[-99.305066,19.980318]]]}},{"type":"Feature","properties":{"nombre":"Polígono sin título"},"geometry":{"type":"Polygon","coordinates":[[[-99.752865,20.224007],[-99.752817,20.223585],[-99.75029,20.222901],[-99.750298,20.223322],[-99.752865,20.224007]]]}},{"type":"Feature","properties":{"nombre":"Polígono sin título"},"geometry":{"type":"Polygon","coordinates":[[[-100.037717,20.419928],[-100.037494,20.419752],[-100.037376,20.419783],[-100.037678,20.420073],[-100.037717,20.419928]]]}},{"type":"Feature","properties":{"nombre":"Polígono sin título"},"geometry":{"type":"Polygon","coordinates":[[[-100.088332,20.477598],[-100.088319,20.477778],[-100.089025,20.478328],[-100.089208,20.478326],[-100.088332,20.477598]]]}},{"type":"Feature","properties":{"nombre":"Polígono sin título"},"geometry":{"type":"Polygon","coordinates":[[[-100.185104,20.572369],[-100.185187,20.572368],[-100.184488,20.570653],[-100.184381,20.570654],[-100.185104,20.572369]]]}}]}